{
    "links": {
        "self": "http://www.neowsapp.com/rest/v1/neo/3701707?api_key=iIulBulltgU6a56xZRHN4H3l9WmuAYTsLGpBGhQ2"
    },
    "id": "3701707",
    "neo_reference_id": "3701707",
    "name": "(2014 WD497)",
    "designation": "2014 WD497",
    "nasa_jpl_url": "http://ssd.jpl.nasa.gov/sbdb.cgi?sstr=3701707",
    "absolute_magnitude_h": 25.3,
    "estimated_diameter": {
        "kilometers": {
            "estimated_diameter_min": 0.0231502122,
            "estimated_diameter_max": 0.0517654482
        },
        "meters": {
            "estimated_diameter_min": 23.150212221,
            "estimated_diameter_max": 51.7654482198
        },
        "miles": {
            "estimated_diameter_min": 0.0143848705,
            "estimated_diameter_max": 0.0321655483
        },
        "feet": {
            "estimated_diameter_min": 75.9521422633,
            "estimated_diameter_max": 169.8341531374
        }
    },
    "is_potentially_hazardous_asteroid": false,
    "close_approach_data": [
        {
            "close_approach_date": "2014-12-15",
            "close_approach_date_full": "2014-Dec-15 21:50",
            "epoch_date_close_approach": 1418680200000,
            "relative_velocity": {
                "kilometers_per_second": "7.0544138582",
                "kilometers_per_hour": "25395.889889679",
                "miles_per_hour": "15780.0183595064"
            },
            "miss_distance": {
                "astronomical": "0.0409839756",
                "lunar": "15.9427665084",
                "kilometers": "6131115.453891972",
                "miles": "3809698.4849823336"
            },
            "orbiting_body": "Earth"
        }
    ],
    "orbital_data": {
        "orbit_id": "4",
        "orbit_determination_date": "2017-04-06 08:36:59",
        "first_observation_date": "2014-11-28",
        "last_observation_date": "2014-12-21",
        "data_arc_in_days": 23,
        "observations_used": 22,
        "orbit_uncertainty": "8",
        "minimum_orbit_intersection": ".0410618",
        "jupiter_tisserand_invariant": "3.847",
        "epoch_osculation": "2456994.5",
        "eccentricity": ".4682804702842951",
        "semi_major_axis": "1.8626114911291",
        "inclination": "5.07630451718378",
        "ascending_node_longitude": "62.076942693653",
        "orbital_period": "928.4998625645576",
        "perihelion_distance": ".9903869061062328",
        "perihelion_argument": "41.30923657362282",
        "aphelion_distance": "2.734836076151967",
        "perihelion_time": "2457023.839739665236",
        "mean_anomaly": "348.6243318870168",
        "mean_motion": ".3877221898618963",
        "equinox": "J2000",
        "orbit_class": {
            "orbit_class_type": "APO",
            "orbit_class_description": "Near-Earth asteroid orbits which cross the Earth’s orbit similar to that of 1862 Apollo",
            "orbit_class_range": "a (semi-major axis) > 1.0 AU; q (perihelion) < 1.017 AU"
        }
    },
    "is_sentry_object": false
}